CCSDS_OMM_VERS = 2.0
CREATION_DATE  = 
ORIGINATOR     = 

OBJECT_NAME    = STARLINK-36269
OBJECT_ID      = 2026-008AD
CENTER_NAME    = EARTH
REF_FRAME      = TEME
TIME_SYSTEM    = UTC
MEAN_ELEMENT_THEORY = SGP/SGP4

EPOCH          = 2026-01-31T06:00:02.999808
MEAN_MOTION    = 15.75082795
ECCENTRICITY   = .0001157
INCLINATION    = 43.0000
RA_OF_ASC_NODE = 60.3142
ARG_OF_PERICENTER = 258.8361
MEAN_ANOMALY   = 128.6581

EPHEMERIS_TYPE = 0
CLASSIFICATION_TYPE = U
NORAD_CAT_ID   = 67472
ELEMENT_SET_NO = 999
REV_AT_EPOCH   = 379
BSTAR          = -.49858292E-3
MEAN_MOTION_DOT = -.76515E-3
MEAN_MOTION_DDOT = 0

CCSDS_OMM_VERS = 2.0
CREATION_DATE  = 
ORIGINATOR     = 

OBJECT_NAME    = STARLINK-36408
OBJECT_ID      = 2026-008AE
CENTER_NAME    = EARTH
REF_FRAME      = TEME
TIME_SYSTEM    = UTC
MEAN_ELEMENT_THEORY = SGP/SGP4

EPOCH          = 2026-01-31T06:00:02.999808
MEAN_MOTION    = 15.75091365
ECCENTRICITY   = .00014814
INCLINATION    = 42.9999
RA_OF_ASC_NODE = 60.3047
ARG_OF_PERICENTER = 266.4393
MEAN_ANOMALY   = 124.9104

EPHEMERIS_TYPE = 0
CLASSIFICATION_TYPE = U
NORAD_CAT_ID   = 67473
ELEMENT_SET_NO = 999
REV_AT_EPOCH   = 379
BSTAR          = -.73069434E-3
MEAN_MOTION_DOT = -.111502E-2
MEAN_MOTION_DDOT = 0

CCSDS_OMM_VERS = 2.0
CREATION_DATE  = 
ORIGINATOR     = 

OBJECT_NAME    = ALSAT-3A
OBJECT_ID      = 2026-009A
CENTER_NAME    = EARTH
REF_FRAME      = TEME
TIME_SYSTEM    = UTC
MEAN_ELEMENT_THEORY = SGP/SGP4

EPOCH          = 2026-01-31T07:19:35.967360
MEAN_MOTION    = 15.23304345
ECCENTRICITY   = .001177
INCLINATION    = 97.4701
RA_OF_ASC_NODE = 106.0055
ARG_OF_PERICENTER = 199.6166
MEAN_ANOMALY   = 160.4620

EPHEMERIS_TYPE = 0
CLASSIFICATION_TYPE = U
NORAD_CAT_ID   = 67474
ELEMENT_SET_NO = 999
REV_AT_EPOCH   = 243
BSTAR          = .29225348E-3
MEAN_MOTION_DOT = .6876E-4
MEAN_MOTION_DDOT = 0

CCSDS_OMM_VERS = 2.0
CREATION_DATE  = 
ORIGINATOR     = 

OBJECT_NAME    = CZ-2C R/B
OBJECT_ID      = 2026-009B
CENTER_NAME    = EARTH
REF_FRAME      = TEME
TIME_SYSTEM    = UTC
MEAN_ELEMENT_THEORY = SGP/SGP4

EPOCH          = 2026-01-31T06:10:12.456768
MEAN_MOTION    = 15.03055926
ECCENTRICITY   = .00997685
INCLINATION    = 97.1793
RA_OF_ASC_NODE = 104.5516
ARG_OF_PERICENTER = 166.9375
MEAN_ANOMALY   = 193.4472

EPHEMERIS_TYPE = 0
CLASSIFICATION_TYPE = U
NORAD_CAT_ID   = 67475
ELEMENT_SET_NO = 999
REV_AT_EPOCH   = 245
BSTAR          = .29957749E-3
MEAN_MOTION_DOT = .444E-4
MEAN_MOTION_DDOT = 0

CCSDS_OMM_VERS = 2.0
CREATION_DATE  = 
ORIGINATOR     = 

OBJECT_NAME    = TIANQI-37
OBJECT_ID      = 2026-010A
CENTER_NAME    = EARTH
REF_FRAME      = TEME
TIME_SYSTEM    = UTC
MEAN_ELEMENT_THEORY = SGP/SGP4

EPOCH          = 2026-01-31T06:58:54.492672
MEAN_MOTION    = 14.13519460
ECCENTRICITY   = .00131803
INCLINATION    = 44.9836
RA_OF_ASC_NODE = 333.0444
ARG_OF_PERICENTER = 29.4843
MEAN_ANOMALY   = 330.6736

EPHEMERIS_TYPE = 0
CLASSIFICATION_TYPE = U
NORAD_CAT_ID   = 67476
ELEMENT_SET_NO = 999
REV_AT_EPOCH   = 219
BSTAR          = .30696208E-3
MEAN_MOTION_DOT = .449E-5
MEAN_MOTION_DDOT = 0

CCSDS_OMM_VERS = 2.0
CREATION_DATE  = 
ORIGINATOR     = 

OBJECT_NAME    = TIANQI-38
OBJECT_ID      = 2026-010B
CENTER_NAME    = EARTH
REF_FRAME      = TEME
TIME_SYSTEM    = UTC
MEAN_ELEMENT_THEORY = SGP/SGP4

EPOCH          = 2026-01-31T06:55:36.547680
MEAN_MOTION    = 14.13896400
ECCENTRICITY   = .00119583
INCLINATION    = 44.9798
RA_OF_ASC_NODE = 333.0263
ARG_OF_PERICENTER = 34.6054
MEAN_ANOMALY   = 325.5560

EPHEMERIS_TYPE = 0
CLASSIFICATION_TYPE = U
NORAD_CAT_ID   = 67477
ELEMENT_SET_NO = 999
REV_AT_EPOCH   = 219
BSTAR          = .30362228E-3
MEAN_MOTION_DOT = .447E-5
MEAN_MOTION_DDOT = 0

CCSDS_OMM_VERS = 2.0
CREATION_DATE  = 
ORIGINATOR     = 

OBJECT_NAME    = TIANQI-39
OBJECT_ID      = 2026-010C
CENTER_NAME    = EARTH
REF_FRAME      = TEME
TIME_SYSTEM    = UTC
MEAN_ELEMENT_THEORY = SGP/SGP4

EPOCH          = 2026-01-30T08:53:02.103072
MEAN_MOTION    = 14.13517056
ECCENTRICITY   = .00144717
INCLINATION    = 44.9851
RA_OF_ASC_NODE = 337.2202
ARG_OF_PERICENTER = 36.2785
MEAN_ANOMALY   = 323.9032

EPHEMERIS_TYPE = 0
CLASSIFICATION_TYPE = U
NORAD_CAT_ID   = 67478
ELEMENT_SET_NO = 999
REV_AT_EPOCH   = 206
BSTAR          = .25056338E-3
MEAN_MOTION_DOT = .342E-5
MEAN_MOTION_DDOT = 0

CCSDS_OMM_VERS = 2.0
CREATION_DATE  = 
ORIGINATOR     = 

OBJECT_NAME    = TIANQI-40
OBJECT_ID      = 2026-010D
CENTER_NAME    = EARTH
REF_FRAME      = TEME
TIME_SYSTEM    = UTC
MEAN_ELEMENT_THEORY = SGP/SGP4

EPOCH          = 2026-01-28T21:15:30.566880
MEAN_MOTION    = 14.13986611
ECCENTRICITY   = .0013061
INCLINATION    = 44.9851
RA_OF_ASC_NODE = 343.9821
ARG_OF_PERICENTER = 21.9564
MEAN_ANOMALY   = 338.1832

EPHEMERIS_TYPE = 0
CLASSIFICATION_TYPE = U
NORAD_CAT_ID   = 67479
ELEMENT_SET_NO = 999
REV_AT_EPOCH   = 185
BSTAR          = .23704672E-3
MEAN_MOTION_DOT = .32E-5
MEAN_MOTION_DDOT = 0

CCSDS_OMM_VERS = 2.0
CREATION_DATE  = 
ORIGINATOR     = 

OBJECT_NAME    = SZ-20 MODULE
OBJECT_ID      = 2025-082C
CENTER_NAME    = EARTH
REF_FRAME      = TEME
TIME_SYSTEM    = UTC
MEAN_ELEMENT_THEORY = SGP/SGP4

EPOCH          = 2026-01-31T04:32:12.376032
MEAN_MOTION    = 15.62079497
ECCENTRICITY   = .00062238
INCLINATION    = 41.4790
RA_OF_ASC_NODE = 75.9541
ARG_OF_PERICENTER = 56.1985
MEAN_ANOMALY   = 303.9446

EPHEMERIS_TYPE = 0
CLASSIFICATION_TYPE = U
NORAD_CAT_ID   = 67481
ELEMENT_SET_NO = 999
REV_AT_EPOCH   = 27175
BSTAR          = .23573682E-3
MEAN_MOTION_DOT = .20972E-3
MEAN_MOTION_DDOT = 0

CCSDS_OMM_VERS = 2.0
CREATION_DATE  = 
ORIGINATOR     = 

OBJECT_NAME    = ION SCV-021
OBJECT_ID      = 2025-276DT
CENTER_NAME    = EARTH
REF_FRAME      = TEME
TIME_SYSTEM    = UTC
MEAN_ELEMENT_THEORY = SGP/SGP4

EPOCH          = 2026-01-31T02:41:51.709920
MEAN_MOTION    = 14.97376944
ECCENTRICITY   = .00109401
INCLINATION    = 97.5412
RA_OF_ASC_NODE = 106.5336
ARG_OF_PERICENTER = 221.1070
MEAN_ANOMALY   = 138.9330

EPHEMERIS_TYPE = 0
CLASSIFICATION_TYPE = U
NORAD_CAT_ID   = 67483
ELEMENT_SET_NO = 999
REV_AT_EPOCH   = 209
BSTAR          = .82126245E-4
MEAN_MOTION_DOT = .899E-5
MEAN_MOTION_DDOT = 0

CCSDS_OMM_VERS = 2.0
CREATION_DATE  = 
ORIGINATOR     = 

OBJECT_NAME    = STARLINK-36551
OBJECT_ID      = 2026-012A
CENTER_NAME    = EARTH
REF_FRAME      = TEME
TIME_SYSTEM    = UTC
MEAN_ELEMENT_THEORY = SGP/SGP4

EPOCH          = 2026-01-31T06:00:02.999808
MEAN_MOTION    = 15.89770550
ECCENTRICITY   = .00014331
INCLINATION    = 42.9962
RA_OF_ASC_NODE = 171.0586
ARG_OF_PERICENTER = 274.6892
MEAN_ANOMALY   = 185.9378

EPHEMERIS_TYPE = 0
CLASSIFICATION_TYPE = U
NORAD_CAT_ID   = 67493
ELEMENT_SET_NO = 999
REV_AT_EPOCH   = 304
BSTAR          = -.57344169E-2
MEAN_MOTION_DOT = -.1554627E-1
MEAN_MOTION_DDOT = 0

CCSDS_OMM_VERS = 2.0
CREATION_DATE  = 
ORIGINATOR     = 

OBJECT_NAME    = STARLINK-36396
OBJECT_ID      = 2026-012B
CENTER_NAME    = EARTH
REF_FRAME      = TEME
TIME_SYSTEM    = UTC
MEAN_ELEMENT_THEORY = SGP/SGP4

EPOCH          = 2026-01-31T06:00:02.999808
MEAN_MOTION    = 15.89251513
ECCENTRICITY   = .00013941
INCLINATION    = 42.9960
RA_OF_ASC_NODE = 171.0542
ARG_OF_PERICENTER = 278.3521
MEAN_ANOMALY   = 184.0635

EPHEMERIS_TYPE = 0
CLASSIFICATION_TYPE = U
NORAD_CAT_ID   = 67494
ELEMENT_SET_NO = 999
REV_AT_EPOCH   = 304
BSTAR          = -.89072351E-2
MEAN_MOTION_DOT = -.2270929E-1
MEAN_MOTION_DDOT = 0

