STARLINK-36269          
1 67472U 26008AD  26031.25003472 -.00076515  00000+0 -49858-3 0  9999
2 67472  43.0000  60.3142 0001157 258.8361 128.6581 15.75082795  3797
STARLINK-36408          
1 67473U 26008AE  26031.25003472 -.00111502  00000+0 -73069-3 0  9997
2 67473  42.9999  60.3047 0001481 266.4393 124.9104 15.75091365  3790
ALSAT-3A                
1 67474U 26009A   26031.30527740  .00006876  00000+0  29225-3 0  9994
2 67474  97.4701 106.0055 0011770 199.6166 160.4620 15.23304345  2437
CZ-2C R/B               
1 67475U 26009B   26031.25708862  .00004440  00000+0  29958-3 0  9993
2 67475  97.1793 104.5516 0099768 166.9375 193.4472 15.03055926  2452
TIANQI-37               
1 67476U 26010A   26031.29090848  .00000449  00000+0  30696-3 0  9994
2 67476  44.9836 333.0444 0013180  29.4843 330.6736 14.13519460  2194
TIANQI-38               
1 67477U 26010B   26031.28861745  .00000447  00000+0  30362-3 0  9994
2 67477  44.9798 333.0263 0011958  34.6054 325.5560 14.13896400  2194
TIANQI-39               
1 67478U 26010C   26030.37016323  .00000342  00000+0  25056-3 0  9996
2 67478  44.9851 337.2202 0014471  36.2785 323.9032 14.13517056  2065
TIANQI-40               
1 67479U 26010D   26028.88577045  .00000320  00000+0  23705-3 0  9998
2 67479  44.9851 343.9821 0013061  21.9564 338.1832 14.13986611  1856
SZ-20 MODULE            
1 67481U 25082C   26031.18903213  .00020972  00000+0  23574-3 0  9995
2 67481  41.4790  75.9541 0006223  56.1985 303.9446 15.62079497271752
ION SCV-021             
1 67483U 25276DT  26031.11240405  .00000899  00000+0  82126-4 0  9997
2 67483  97.5412 106.5336 0010940 221.1070 138.9330 14.97376944  2091
STARLINK-36551          
1 67493U 26012A   26031.25003472 -.01554627  00000+0 -57344-2 0  9991
2 67493  42.9962 171.0586 0001433 274.6892 185.9378 15.89770550  3045
STARLINK-36396          
1 67494U 26012B   26031.25003472 -.02270929  00000+0 -89072-2 0  9996
2 67494  42.9960 171.0542 0001394 278.3521 184.0635 15.89251513  3041
